EARTHCARE               
1 59908U 24101A   24217.61998361  .00023241  00000+0  33843-3 0  9993
2 59908  96.9852 344.2300 0002331 282.4539  77.6456 15.55728763 10511
